     3.00           N                   E                   RINEX VERSION / TYPE
BRD_USR             ESA                 20190108 191619  UTCPGM / RUN BY / DATE
 GAL   5.0750E+01  7.0312E-02 -4.8523E-03  0.0000E+00       IONOSPHERIC CORR
GAUT  0.0000000000E+00 0.000000000E+00 172800 2035 GSTB   0 TIME SYSTEM CORR
GPGA -5.5297277868E-10 4.884981308E-15 259200 2035 GSTB   0 TIME SYSTEM CORR
                                                            END OF HEADER
E12 2019 01 08 17 30 00 5.898303003050E-03 8.428457931586E-11 0.000000000000E+00
     9.000000000000E+00-8.565625000000E+01 3.039769475743E-09-7.803282715761E-01
    -3.939494490623E-06 3.808754263446E-04-4.060566425323E-07 5.440601858139E+03
     2.358000000000E+05-7.450580596924E-08-8.619721993677E-01-3.352761268616E-08
     9.819242345714E-01 3.603750000000E+02-8.939433772213E-01-5.896674191577E-09
    -1.692927660089E-10 2.580000000000E+02 2.035000000000E+03 0.000000000000E+00
     3.120000000000E+00 0.000000000000E+00-1.559965312481E-08 0.000000000000E+00
     2.367500000000E+05 0.000000000000E+00 0.000000000000E+00 0.000000000000E+00
E12 2019 01 08 17 30 00 5.898303119466E-03 8.427036846115E-11 0.000000000000E+00
     9.000000000000E+00-8.565625000000E+01 3.039769475743E-09-7.803282715761E-01
    -3.939494490623E-06 3.808754263446E-04-4.060566425323E-07 5.440601858139E+03
     2.358000000000E+05-7.450580596924E-08-8.619721993677E-01-3.352761268616E-08
     9.819242345714E-01 3.603750000000E+02-8.939433772213E-01-5.896674191577E-09
    -1.692927660089E-10 5.210000000000E+02 2.035000000000E+03 0.000000000000E+00
     3.120000000000E+00 0.000000000000E+00-1.559965312481E-08-1.606531441212E-08
     2.367550000000E+05 0.000000000000E+00 0.000000000000E+00 0.000000000000E+00
E04 2019 01 08 17 30 00-1.959200017154E-04-7.887024366937E-12 0.000000000000E+00
     9.000000000000E+00 2.571875000000E+01 3.498717164185E-09 4.498441275278E-01
     1.261010766029E-06 7.203035056591E-05 8.793547749519E-06 5.440611629486E+03
     2.358000000000E+05 1.117587089539E-08 1.243301740691E+00 5.029141902924E-08
     9.523553627721E-01 1.470625000000E+02 2.049594318287E+00-5.567017602914E-09
     6.589560195918E-10 2.580000000000E+02 2.035000000000E+03 0.000000000000E+00
     3.120000000000E+00 0.000000000000E+00-8.149072527885E-09 0.000000000000E+00
     2.368000000000E+05 0.000000000000E+00 0.000000000000E+00 0.000000000000E+00
E21 2019 01 08 17 30 00-5.134434904903E-04-1.804778548831E-12 0.000000000000E+00
     9.000000000000E+00 7.828125000000E+01 2.459030999940E-09 2.276839385511E+00
     3.518536686897E-06 4.811107646674E-05 1.168251037598E-05 5.440631931305E+03
     2.358000000000E+05 6.332993507385E-08-2.950048004266E+00 5.215406417847E-08
     9.898537421015E-01 1.043437500000E+02-2.839390544470E-01-5.079497295737E-09
    -4.893060958486E-10 2.580000000000E+02 2.035000000000E+03 0.000000000000E+00
     3.120000000000E+00 0.000000000000E+00-2.328306436539E-09 0.000000000000E+00
     2.368000000000E+05 0.000000000000E+00 0.000000000000E+00 0.000000000000E+00
E04 2019 01 08 17 30 00-1.959204091690E-04-7.901235221652E-12 0.000000000000E+00
     9.000000000000E+00 2.571875000000E+01 3.498717164185E-09 4.498441275278E-01
     1.261010766029E-06 7.203035056591E-05 8.793547749519E-06 5.440611629486E+03
     2.358000000000E+05 1.117587089539E-08 1.243301740691E+00 5.029141902924E-08
     9.523553627721E-01 1.470625000000E+02 2.049594318287E+00-5.567017602914E-09
     6.589560195918E-10 5.210000000000E+02 2.035000000000E+03 0.000000000000E+00
     3.120000000000E+00 0.000000000000E+00-8.149072527885E-09-9.080395102501E-09
     2.368150000000E+05 0.000000000000E+00 0.000000000000E+00 0.000000000000E+00
E21 2019 01 08 17 30 00-5.134434904903E-04-1.804778548831E-12 0.000000000000E+00
     9.000000000000E+00 7.828125000000E+01 2.459030999940E-09 2.276839385511E+00
     3.518536686897E-06 4.811107646674E-05 1.168251037598E-05 5.440631931305E+03
     2.358000000000E+05 6.332993507385E-08-2.950048004266E+00 5.215406417847E-08
     9.898537421015E-01 1.043437500000E+02-2.839390544470E-01-5.079497295737E-09
    -4.893060958486E-10 5.210000000000E+02 2.035000000000E+03 0.000000000000E+00
     3.120000000000E+00 0.000000000000E+00-2.328306436539E-09-2.793967723846E-09
     2.368150000000E+05 0.000000000000E+00 0.000000000000E+00 0.000000000000E+00
E09 2019 01 08 17 30 00 6.564193055965E-03-1.131184035330E-11 0.000000000000E+00
     9.000000000000E+00 1.371875000000E+01 3.303709041314E-09 1.620376842674E+00
     6.761401891708E-07 2.424310659990E-04 8.830800652504E-06 5.440615482330E+03
     2.358000000000E+05 3.352761268616E-08 1.234620070904E+00 5.587935447693E-08
     9.583295749592E-01 1.480937500000E+02 8.951084583459E-02-5.500943422088E-09
     6.689564361493E-10 2.580000000000E+02 2.035000000000E+03 0.000000000000E+00
     3.120000000000E+00 0.000000000000E+00-3.259629011154E-09 0.000000000000E+00
     2.368500000000E+05 0.000000000000E+00 0.000000000000E+00 0.000000000000E+00
E09 2019 01 08 17 30 00 6.564192939550E-03-1.132605120802E-11 0.000000000000E+00
     9.000000000000E+00 1.371875000000E+01 3.303709041314E-09 1.620376842674E+00
     6.761401891708E-07 2.424310659990E-04 8.830800652504E-06 5.440615482330E+03
     2.358000000000E+05 3.352761268616E-08 1.234620070904E+00 5.587935447693E-08
     9.583295749592E-01 1.480937500000E+02 8.951084583459E-02-5.500943422088E-09
     6.689564361493E-10 5.210000000000E+02 2.035000000000E+03 0.000000000000E+00
     3.120000000000E+00 0.000000000000E+00-3.259629011154E-09-3.958120942116E-09
     2.368750000000E+05 0.000000000000E+00 0.000000000000E+00 0.000000000000E+00
E14 2019 01 08 17 30 00 6.462853576522E-03-5.584865903074E-12 0.000000000000E+00
     9.000000000000E+00 2.109375000000E+01 4.959492297047E-09 4.140071754835E-01
    -3.781169652939E-07 1.663534914842E-01 5.625188350677E-06 5.289338188171E+03
     2.358000000000E+05-2.034008502960E-06-1.463082259637E+00-5.276873707771E-06
     8.825614430038E-01 2.480312500000E+02 1.454957679296E+00-7.733893576282E-09
     1.138261698883E-09 2.580000000000E+02 2.035000000000E+03 0.000000000000E+00
     3.120000000000E+00 5.600000000000E+01 3.306195139885E-08 0.000000000000E+00
     2.369000000000E+05 0.000000000000E+00 0.000000000000E+00 0.000000000000E+00
E14 2019 01 08 17 30 00 6.462858233135E-03-5.584865903074E-12 0.000000000000E+00
     9.000000000000E+00 2.109375000000E+01 4.959492297047E-09 4.140071754835E-01
    -3.781169652939E-07 1.663534914842E-01 5.625188350677E-06 5.289338188171E+03
     2.358000000000E+05-2.034008502960E-06-1.463082259637E+00-5.276873707771E-06
     8.825614430038E-01 2.480312500000E+02 1.454957679296E+00-7.733893576282E-09
     1.138261698883E-09 5.210000000000E+02 2.035000000000E+03 0.000000000000E+00
     3.120000000000E+00 4.550000000000E+02 3.306195139885E-08 3.725290298462E-08
     2.369050000000E+05 0.000000000000E+00 0.000000000000E+00 0.000000000000E+00
E02 2019 01 08 17 40 00 4.250119673088E-05 1.577404873387E-12 0.000000000000E+00
     1.000000000000E+01 4.965625000000E+01 2.483674883600E-09-1.623836028043E+00
     2.380460500717E-06 2.698100870475E-04 1.190602779388E-05 5.440623531342E+03
     2.364000000000E+05-3.166496753693E-08-2.947477073497E+00-5.587935447693E-09
     9.902985716019E-01 9.909375000000E+01-2.537777447131E-01-5.116284542359E-09
    -4.964492505326E-10 5.210000000000E+02 2.035000000000E+03 0.000000000000E+00
     3.120000000000E+00 0.000000000000E+00-6.286427378654E-09-7.683411240578E-09
     2.370850000000E+05 0.000000000000E+00 0.000000000000E+00 0.000000000000E+00
E03 2019 01 08 17 40 00-1.199505641125E-04-4.249045559845E-12 0.000000000000E+00
     1.000000000000E+01 2.081250000000E+01 3.461572759828E-09-4.025674691681E-01
     1.018866896629E-06 2.615705598146E-04 8.534640073776E-06 5.440614877701E+03
     2.364000000000E+05 2.793967723846E-08 1.243247498614E+00-2.048909664154E-08
     9.523125928991E-01 1.574062500000E+02 6.156931137924E-01-5.546302454331E-09
     6.203829842986E-10 5.210000000000E+02 2.035000000000E+03 0.000000000000E+00
     3.120000000000E+00 0.000000000000E+00-1.862645149231E-09-2.095475792885E-09
     2.370850000000E+05 0.000000000000E+00 0.000000000000E+00 0.000000000000E+00
E04 2019 01 08 17 40 00-1.959251821972E-04-7.901235221652E-12 0.000000000000E+00
     1.000000000000E+01 2.603125000000E+01 3.502645899261E-09 5.252315994215E-01
     1.275911927223E-06 7.197039667517E-05 8.827075362206E-06 5.440611440659E+03
     2.364000000000E+05 7.450580596924E-09 1.243298418404E+00 5.401670932770E-08
     9.523557402050E-01 1.464062500000E+02 2.048592454933E+00-5.570232022522E-09
     6.582417041234E-10 5.210000000000E+02 2.035000000000E+03 0.000000000000E+00
     3.120000000000E+00 0.000000000000E+00-8.149072527885E-09-9.080395102501E-09
     2.370850000000E+05 0.000000000000E+00 0.000000000000E+00 0.000000000000E+00
E08 2019 01 08 17 40 00 6.427346670534E-03-7.432277016051E-12 0.000000000000E+00
     1.000000000000E+01 2.250000000000E+01 3.341924918873E-09-1.024789735566E+00
     1.119449734688E-06 2.175421686843E-04 8.186325430870E-06 5.440617492676E+03
     2.364000000000E+05-1.862645149231E-08 1.234619725656E+00-4.470348358154E-08
     9.583001132520E-01 1.659375000000E+02 4.541287688118E-01-5.545230981128E-09
     6.310977163245E-10 5.210000000000E+02 2.035000000000E+03 0.000000000000E+00
     3.120000000000E+00 0.000000000000E+00-8.614733815193E-09-1.001171767712E-08
     2.370850000000E+05 0.000000000000E+00 0.000000000000E+00 0.000000000000E+00
